
STARLINK-30857          
1 58595U 23200G   25023.93451558 -.00000664  00000+0 -34104-4 0  9994
2 58595  43.0013 236.9976 0001286 266.1366  93.9329 15.02522978 61951
STARLINK-31059          
1 58596U 23200H   25023.73032929  .00002002  00000+0  86353-4 0  9999
2 58596  43.0004 166.4652 0001479 266.9403  93.1279 15.25917415 62769
STARLINK-31087          
1 58597U 23200J   25023.99430903  .00000169  00000+0  27558-4 0  9996
2 58597  43.0016 236.5846 0001338 268.3847  91.6842 15.02535720 61868
STARLINK-31079          
1 58598U 23200K   25023.65858590 -.00007176  00000+0 -51626-3 0  9995
2 58598  42.9989 238.3646 0000962 251.7780 108.2958 15.02566728 61919
STARLINK-31072          
1 58599U 23200L   25024.25001157  .00225642  00000+0  19508-2 0  9992
2 58599  42.9974 147.1681 0026707 354.9012 298.9746 15.67271950 63059
STARLINK-31052          
1 58600U 23200M   25023.98768817  .00010822  00000+0  81577-3 0  9995
2 58600  42.9988 236.5371 0001011 294.0153  66.0583 15.02496820 61984
STARLINK-31074          
1 58601U 23200N   25023.98431677  .00000752  00000+0  70763-4 0  9994
2 58601  43.0010 236.5106 0001292 256.7072 103.3627 15.02537712 61985
STARLINK-31071          
1 58602U 23200P   25023.74724093  .00000694  00000+0  36380-4 0  9998
2 58602  43.0023 161.3369 0001043 269.0522  91.0209 15.25905737 62821
STARLINK-31080          
1 58603U 23200Q   25023.71508093  .00000557  00000+0  56310-4 0  9999
2 58603  43.0018 237.9283 0001141 269.0186  91.0526 15.02533455 61736
STARLINK-31088          
1 58604U 23200R   25023.97767344  .00000812  00000+0  75210-4 0  9998
2 58604  43.0011 236.4437 0000958 261.0584  99.0150 15.02525850 61982
STARLINK-31038          
1 58605U 23200S   25023.97098689  .00001737  00000+0  14355-3 0  9997
2 58605  42.9978 236.4079 0000687 267.8116  92.2648 15.02549134 61987
STARLINK-31082          
1 58606U 23200T   25023.97433102  .00001044  00000+0  92350-4 0  9994
2 58606  43.0012 236.4330 0001141 259.8901 100.1813 15.02531291 61986
STARLINK-31069          
1 58607U 23200U   25023.96767731  .00001541  00000+0  12915-3 0  9992
2 58607  43.0019 236.3812 0000966 244.5152 115.5590 15.02529022 61982
STARLINK-31067          
1 58608U 23200V   25023.89786138  .00001330  00000+0  11351-3 0  9996
2 58608  43.0010 236.7184 0000981 270.5466  89.5264 15.02538449 61952
STARLINK-31085          
1 58609U 23200W   25024.02749223  .00000325  00000+0  39148-4 0  9995
2 58609  43.0023 235.9697 0001207 268.9322  91.1382 15.02529905 62005
STARLINK-31089          
1 58610U 23200X   25024.01761306  .00004397  00000+0  34029-3 0  9997
2 58610  42.9999 236.6988 0000673 271.5157  88.5609 15.02543494 61998
STARLINK-31061          
1 58611U 23200Y   25023.95767966 -.00006912  00000+0 -49682-3 0  9996
2 58611  43.0053 236.3014 0001614 273.7201  86.3457 15.02554726 61974
COSMOS 2573             
1 58614U 23201A   25024.16977179  .00012282  00000+0  45817-3 0  9994
2 58614  97.5780 320.8804 0009700 349.4032  10.7000 15.27520434 60904
STARLINK-31054          
1 58619U 23203B   25023.92337387  .00000782  00000+0  39747-4 0  9993
2 58619  42.9998 221.1688 0001196 269.9617  90.1097 15.25904562 60895
STARLINK-31134          
1 58621U 23203D   25023.91206581  .00000659  00000+0  35012-4 0  9990
2 58621  43.0014 221.0758 0000776 261.1153  98.9610 15.25906073 60894
STARLINK-31133          
1 58622U 23203E   25023.91884858  .00000503  00000+0  29086-4 0  9992
2 58622  43.0028 221.1281 0001103 270.0986  89.9739 15.25908066 60896
STARLINK-31068          
1 58623U 23203F   25023.52383688  .00001032  00000+0  49277-4 0  9997
2 58623  43.0016 223.3217 0001141 271.8058  88.2663 15.25908965 60838
STARLINK-31129          
1 58624U 23203G   25023.91433431 -.00000706  00000+0 -17156-4 0  9993
2 58624  43.0005 221.0940 0000682 305.0996  54.9791 15.25899023 62068
STARLINK-30774          
1 58625U 23203H   25023.90753952  .00001687  00000+0  74330-4 0  9990
2 58625  43.0018 221.0420 0001401 280.6116  79.4577 15.25906865 60894
STARLINK-31086          
1 58626U 23203J   25023.95024125  .00002645  00000+0  11090-3 0  9997
2 58626  42.9966 219.6706 0000698 287.0606  73.0168 15.25912103 62134
STARLINK-31065          
1 58627U 23203K   25023.88917518  .00001757  00000+0  76987-4 0  9997
2 58627  42.9973 219.1936 0000816 284.3861  75.6899 15.25900874 62027
STARLINK-31092          
1 58628U 23203L   25023.90527944  .00000419  00000+0  25865-4 0  9994
2 58628  42.9987 221.0261 0001044 279.5039  80.5693 15.25903677 60897
STARLINK-31091          
1 58629U 23203M   25023.96620726  .00004442  00000+0  17966-3 0  9995
2 58629  43.0010 220.6256 0001853 312.3727  47.6967 15.25891433 61967
STARLINK-31084          
1 58630U 23203N   25023.89848868  .00010191  00000+0  39866-3 0  9999
2 58630  43.0000 220.9800 0001583 265.6404  94.4266 15.25929054 60892
STARLINK-31064          
1 58631U 23203P   25023.89396046  .00009696  00000+0  38006-3 0  9999
2 58631  42.9984 220.9491 0000681 281.1631  78.9143 15.25906342 62068
STARLINK-31081          
1 58632U 23203Q   25023.89171064 -.00000763  00000+0 -19341-4 0  9991
2 58632  42.9983 220.9341 0001093 281.2254  78.8474 15.25902485 62129
STARLINK-31022          
1 58633U 23203R   25023.89622327  .00000334  00000+0  22596-4 0  9993
2 58633  43.0005 220.9600 0001575 246.0421 114.0266 15.25912500 62126
STARLINK-31025          
1 58634U 23203S   25023.94755414  .00001034  00000+0  49358-4 0  9997
2 58634  42.9980 216.9833 0000755 275.2745  84.8020 15.25911265 62176
STARLINK-31018          
1 58635U 23203T   25023.93468292  .00001286  00000+0  59022-4 0  9990
2 58635  43.0019 221.2706 0001453 274.5235  85.5450 15.25903131 62125
STARLINK-31008          
1 58636U 23203U   25024.00239849 -.00004000  00000+0 -14307-3 0  9999
2 58636  43.0035 220.9168 0001642 252.2664 107.8008 15.25931023 62130
STARLINK-31077          
1 58637U 23203V   25023.93242529  .00000411  00000+0  25548-4 0  9990
2 58637  43.0002 221.2526 0000729 291.3410  68.7363 15.25905034 62126
STARLINK-31078          
1 58638U 23203W   25023.92790047  .00001586  00000+0  70467-4 0  9997
2 58638  42.9997 221.2122 0000949 269.1548  90.9194 15.25903346 60894
STARLINK-31070          
1 58639U 23203X   25023.92563040  .00000998  00000+0  47973-4 0  9991
2 58639  42.9992 221.1929 0001070 259.4021 100.6710 15.25912299 60898
STARLINK-31090          
1 58640U 23203Y   25023.91937885  .00005270  00000+0  21113-3 0  9999
2 58640  43.0010 212.5173 0001268 268.9497  91.1209 15.25912460 61000
TIANMU-1 11             
1 58645U 23205A   25024.12058007  .00010514  00000+0  49523-3 0  9992
2 58645  97.3870  49.9616 0010540   5.5869 354.5482 15.19653298 60019
TIANMU-1 12             
1 58646U 23205B   25024.13830340  .00011570  00000+0  54499-3 0  9993
2 58646  97.3856  49.8630 0008357   0.4090 359.7150 15.19645210 60005
TIANMU-1 13             
1 58647U 23205C   25024.10468243  .00010772  00000+0  50741-3 0  9999
2 58647  97.3883  49.9111 0008127 339.4050  20.6856 15.19664458 59995
TIANMU-1 14             
1 58648U 23205D   25024.08896435  .00011433  00000+0  53844-3 0  9997
2 58648  97.3810  49.5445 0008856 342.4114  17.6813 15.19650787 59995
SHIYAN 24C 01           
1 58650U 23206A   25023.96672103  .00004707  00000+0  42294-3 0  9994
2 58650  97.3497  15.1980 0004683 109.9847 250.1879 14.96116279 59112
SHIYAN 24C 02           
1 58651U 23206B   25023.96525863  .00004251  00000+0  38302-3 0  9994
2 58651  97.3500  15.2039 0002122  63.9495 296.1945 14.96070218 59114
SHIYAN 24C 03           
1 58652U 23206C   25023.96468484  .00003418  00000+0  30871-3 0  9997
2 58652  97.3485  15.2199 0001390  63.7410 296.3955 14.96091036 59108
BEIDOU-3 M28            
1 58654U 23207A   25022.11747711 -.00000053  00000+0  00000+0 0  9999
2 58654  55.2946  79.6091 0003894 274.5201  85.4949  1.86232088  7327
BEIDOU-3 M26            
1 58655U 23207B   25021.91696665 -.00000054  00000+0  00000+0 0  9999
2 58655  55.2964  79.6018 0004973 261.2996  98.7035  1.86231588  7305
COSMOS 2574             
1 58658U 23209A   25023.64580657  .00065380  14173-5  28675-3 0  9995
2 58658  96.6834 282.7561 0000887 179.9065 180.2208 15.84588369 62366
TIANMU-1 19             
1 58660U 23208A   25024.17485973  .00015080  00000+0  68804-3 0  9999
2 58660  97.4185 138.0284 0005385 322.5491  37.5369 15.20702583 59688
TIANMU-1 20             
1 58661U 23208B   25024.15317876  .00014195  00000+0  62501-3 0  9998
2 58661  97.4117 138.1412 0008192 331.4854  28.5933 15.21920285 59712
TIANMU-1 21             
1 58662U 23208C   25024.17601409  .00016783  00000+0  70659-3 0  9997
2 58662  97.4157 138.9185 0007775 330.1654  29.9138 15.23409536 59751
TIANMU-1 22             
1 58663U 23208D   25024.10195453  .00014325  00000+0  65064-3 0  9992
2 58663  97.4178 138.0565 0004349 353.4113   6.7065 15.20873749 59682
MDQUBESAT-2             
1 58665U 23185P   25024.15228915  .00037234  00000+0  18125-2 0  9992
2 58665  97.6004  96.2219 0013136 259.8415 100.1337 15.18199776 59525
STARLINK-31113          
1 58668U 23211B   25023.71039417  .00000000  00000+0  98382-5 0  9990
2 58668  43.0006 238.9042 0001005 283.4755  76.5984 15.25903652 59782
STARLINK-31128          
1 58669U 23211C   25024.01959073 -.00001197  00000+0 -35953-4 0  9998
2 58669  43.0065 236.9066 0000954 306.0218  54.0545 15.25902328 60897
STARLINK-31083          
1 58670U 23211D   25023.97675120 -.00000042  00000+0  82323-5 0  9993
2 58670  43.0032 237.4645 0001119 242.7147 117.3590 15.25895379 61007
STARLINK-30828          
1 58671U 23211E   25023.93377311  .00000399  00000+0  25085-4 0  9996
2 58671  43.0006 237.1418 0001130 271.3201  88.7521 15.25905675 59829
